ZHONGXING-12            
1 39017U 12067A   26115.87664272 -.00000220  00000+0  00000+0 0  9996
2 39017   0.0443  71.0530 0003148 310.4147 235.5039  1.00271222 48988
EUTELSAT 70B            
1 39020U 12069A   26115.79499234 -.00000057  00000+0  00000+0 0  9995
2 39020   0.0694  16.0702 0005096  16.0771 178.3405  1.00271432 48980
YAMAL 402               
1 39022U 12070A   26115.79187233  .00000073  00000+0  00000+0 0  9999
2 39022   1.1319  84.7492 0003853 303.5871 165.4394  1.00271155 48874
SKYNET 5D               
1 39034U 12075A   26115.79143898  .00000086  00000+0  00000+0 0  9990
2 39034   0.0709   4.2543 0003633  27.9816 159.2290  1.00272128 48635
MEXSAT 3                
1 39035U 12075B   26115.11659375 -.00000041  00000+0  00000+0 0  9991
2 39035   0.0181 224.1039 0001382 173.2800 102.9603  1.00277537  6524
TDRS 11                 
1 39070U 13004A   26115.81778578  .00000068  00000+0  00000+0 0  9995
2 39070   3.4446  30.3387 0005427   0.8207 302.9324  1.00264224 46162
AMAZONAS 3              
1 39078U 13006A   26115.87336475 -.00000296  00000+0  00000+0 0  9991
2 39078   0.0209 171.1009 0001466 206.5921  89.6126  1.00271122 44399
AZERSPACE 1             
1 39079U 13006B   26115.79013897  .00000000  00000+0  00000+0 0  9995
2 39079   0.0170 104.0024 0001924 331.6820 108.5522  1.00270736 48289
SBIRS GEO-2 (USA 241)   
1 39120U 13011A   26115.69971990 -.00000297  00000+0  00000+0 0  9993
2 39120   4.3769  52.4467 0002242 338.3694  24.9983  1.00271371 48010
EUTELSAT 117 WEST A     
1 39122U 13012A   26115.37091557 -.00000027  00000+0  00000+0 0  9994
2 39122   0.0202 303.7422 0002468  71.4556 214.9298  1.00272954 47907
ANIK G1                 
1 39127U 13014A   26115.68836649  .00000000  00000+0  00000+0 0  9994
2 39127   0.0231 107.2129 0002174 268.0777 338.9259  1.00269283 47723
ZHONGXING-11            
1 39157U 13020A   26114.73086053 -.00000305  00000+0  00000+0 0  9994
2 39157   0.0222 295.6622 0001494 102.4154 175.6572  1.00274217 47367
EUTELSAT 7B             
1 39163U 13022A   26115.83933421  .00000034  00000+0  00000+0 0  9993
2 39163   0.0750  19.7025 0005907 357.7592 145.5336  1.00271179 47421
WGS F5 (USA 243)        
1 39168U 13024A   26115.48537220 -.00000298  00000+0  00000+0 0  9991
2 39168   0.0157 233.8848 0000278  60.4157  41.4352  1.00272214 46646
SES-6                   
1 39172U 13026A   26115.84430588 -.00000275  00000+0  00000+0 0  9992
2 39172   0.0243 341.5646 0002378  56.7305  79.0035  1.00271216 47205
IRNSS-1A                
1 39199U 13034A   26115.43536534  .00000075  00000+0  00000+0 0  9990
2 39199  35.6090  64.6236 0017045 187.4898 173.0272  1.00272082 46841
MUOS-2                  
1 39206U 13036A   26115.75947310 -.00000024  00000+0  00000+0 0  9999
2 39206   4.8919  45.4347 0050525 180.6758  73.0089  1.00270780 46666
