[{"OBJECT_NAME":"ZHONGXING-12","OBJECT_ID":"2012-067A","EPOCH":"2026-04-25T21:02:21.931008","MEAN_MOTION":1.00271222,"ECCENTRICITY":0.0003148,"INCLINATION":0.0443,"RA_OF_ASC_NODE":71.053,"ARG_OF_PERICENTER":310.4147,"MEAN_ANOMALY":235.5039,"EPHEMERIS_TYPE":0,"CLASSIFICATION_TYPE":"U","NORAD_CAT_ID":39017,"ELEMENT_SET_NO":999,"REV_AT_EPOCH":4898,"BSTAR":0,"MEAN_MOTION_DOT":-2.2e-6,"MEAN_MOTION_DDOT":0},{"OBJECT_NAME":"EUTELSAT 70B","OBJECT_ID":"2012-069A","EPOCH":"2026-04-25T19:04:47.338176","MEAN_MOTION":1.00271432,"ECCENTRICITY":0.0005096,"INCLINATION":0.0694,"RA_OF_ASC_NODE":16.0702,"ARG_OF_PERICENTER":16.0771,"MEAN_ANOMALY":178.3405,"EPHEMERIS_TYPE":0,"CLASSIFICATION_TYPE":"U","NORAD_CAT_ID":39020,"ELEMENT_SET_NO":999,"REV_AT_EPOCH":4898,"BSTAR":0,"MEAN_MOTION_DOT":-5.7e-7,"MEAN_MOTION_DDOT":0},{"OBJECT_NAME":"YAMAL 402","OBJECT_ID":"2012-070A","EPOCH":"2026-04-25T19:00:17.769312","MEAN_MOTION":1.00271155,"ECCENTRICITY":0.0003853,"INCLINATION":1.1319,"RA_OF_ASC_NODE":84.7492,"ARG_OF_PERICENTER":303.5871,"MEAN_ANOMALY":165.4394,"EPHEMERIS_TYPE":0,"CLASSIFICATION_TYPE":"U","NORAD_CAT_ID":39022,"ELEMENT_SET_NO":999,"REV_AT_EPOCH":4887,"BSTAR":0,"MEAN_MOTION_DOT":7.3e-7,"MEAN_MOTION_DDOT":0},{"OBJECT_NAME":"SKYNET 5D","OBJECT_ID":"2012-075A","EPOCH":"2026-04-25T18:59:40.327872","MEAN_MOTION":1.00272128,"ECCENTRICITY":0.0003633,"INCLINATION":0.0709,"RA_OF_ASC_NODE":4.2543,"ARG_OF_PERICENTER":27.9816,"MEAN_ANOMALY":159.229,"EPHEMERIS_TYPE":0,"CLASSIFICATION_TYPE":"U","NORAD_CAT_ID":39034,"ELEMENT_SET_NO":999,"REV_AT_EPOCH":4863,"BSTAR":0,"MEAN_MOTION_DOT":8.6e-7,"MEAN_MOTION_DDOT":0},{"OBJECT_NAME":"MEXSAT 3","OBJECT_ID":"2012-075B","EPOCH":"2026-04-25T02:47:53.700000","MEAN_MOTION":1.00277537,"ECCENTRICITY":0.00013821,"INCLINATION":0.0181,"RA_OF_ASC_NODE":224.1039,"ARG_OF_PERICENTER":173.28,"MEAN_ANOMALY":102.9603,"EPHEMERIS_TYPE":0,"CLASSIFICATION_TYPE":"U","NORAD_CAT_ID":39035,"ELEMENT_SET_NO":999,"REV_AT_EPOCH":652,"BSTAR":0,"MEAN_MOTION_DOT":-4.1e-7,"MEAN_MOTION_DDOT":0},{"OBJECT_NAME":"TDRS 11","OBJECT_ID":"2013-004A","EPOCH":"2026-04-25T19:37:36.691392","MEAN_MOTION":1.00264224,"ECCENTRICITY":0.0005427,"INCLINATION":3.4446,"RA_OF_ASC_NODE":30.3387,"ARG_OF_PERICENTER":0.8207,"MEAN_ANOMALY":302.9324,"EPHEMERIS_TYPE":0,"CLASSIFICATION_TYPE":"U","NORAD_CAT_ID":39070,"ELEMENT_SET_NO":999,"REV_AT_EPOCH":4616,"BSTAR":0,"MEAN_MOTION_DOT":6.8e-7,"MEAN_MOTION_DDOT":0},{"OBJECT_NAME":"AMAZONAS 3","OBJECT_ID":"2013-006A","EPOCH":"2026-04-25T20:57:38.714400","MEAN_MOTION":1.00271122,"ECCENTRICITY":0.0001466,"INCLINATION":0.0209,"RA_OF_ASC_NODE":171.1009,"ARG_OF_PERICENTER":206.5921,"MEAN_ANOMALY":89.6126,"EPHEMERIS_TYPE":0,"CLASSIFICATION_TYPE":"U","NORAD_CAT_ID":39078,"ELEMENT_SET_NO":999,"REV_AT_EPOCH":4439,"BSTAR":0,"MEAN_MOTION_DOT":-2.96e-6,"MEAN_MOTION_DDOT":0},{"OBJECT_NAME":"AZERSPACE 1","OBJECT_ID":"2013-006B","EPOCH":"2026-04-25T18:57:48.007008","MEAN_MOTION":1.00270736,"ECCENTRICITY":0.0001924,"INCLINATION":0.017,"RA_OF_ASC_NODE":104.0024,"ARG_OF_PERICENTER":331.682,"MEAN_ANOMALY":108.5522,"EPHEMERIS_TYPE":0,"CLASSIFICATION_TYPE":"U","NORAD_CAT_ID":39079,"ELEMENT_SET_NO":999,"REV_AT_EPOCH":4828,"BSTAR":0,"MEAN_MOTION_DOT":0,"MEAN_MOTION_DDOT":0},{"OBJECT_NAME":"SBIRS GEO-2 (USA 241)","OBJECT_ID":"2013-011A","EPOCH":"2026-04-25T16:47:35.799360","MEAN_MOTION":1.00271371,"ECCENTRICITY":0.0002242,"INCLINATION":4.3769,"RA_OF_ASC_NODE":52.4467,"ARG_OF_PERICENTER":338.3694,"MEAN_ANOMALY":24.9983,"EPHEMERIS_TYPE":0,"CLASSIFICATION_TYPE":"U","NORAD_CAT_ID":39120,"ELEMENT_SET_NO":999,"REV_AT_EPOCH":4801,"BSTAR":0,"MEAN_MOTION_DOT":-2.97e-6,"MEAN_MOTION_DDOT":0},{"OBJECT_NAME":"EUTELSAT 117 WEST A","OBJECT_ID":"2013-012A","EPOCH":"2026-04-25T08:54:07.105248","MEAN_MOTION":1.00272954,"ECCENTRICITY":0.0002468,"INCLINATION":0.0202,"RA_OF_ASC_NODE":303.7422,"ARG_OF_PERICENTER":71.4556,"MEAN_ANOMALY":214.9298,"EPHEMERIS_TYPE":0,"CLASSIFICATION_TYPE":"U","NORAD_CAT_ID":39122,"ELEMENT_SET_NO":999,"REV_AT_EPOCH":4790,"BSTAR":0,"MEAN_MOTION_DOT":-2.7e-7,"MEAN_MOTION_DDOT":0},{"OBJECT_NAME":"ANIK G1","OBJECT_ID":"2013-014A","EPOCH":"2026-04-25T16:31:14.864736","MEAN_MOTION":1.00269283,"ECCENTRICITY":0.0002174,"INCLINATION":0.0231,"RA_OF_ASC_NODE":107.2129,"ARG_OF_PERICENTER":268.0777,"MEAN_ANOMALY":338.9259,"EPHEMERIS_TYPE":0,"CLASSIFICATION_TYPE":"U","NORAD_CAT_ID":39127,"ELEMENT_SET_NO":999,"REV_AT_EPOCH":4772,"BSTAR":0,"MEAN_MOTION_DOT":0,"MEAN_MOTION_DDOT":0},{"OBJECT_NAME":"ZHONGXING-11","OBJECT_ID":"2013-020A","EPOCH":"2026-04-24T17:32:26.349792","MEAN_MOTION":1.00274217,"ECCENTRICITY":0.0001494,"INCLINATION":0.0222,"RA_OF_ASC_NODE":295.6622,"ARG_OF_PERICENTER":102.4154,"MEAN_ANOMALY":175.6572,"EPHEMERIS_TYPE":0,"CLASSIFICATION_TYPE":"U","NORAD_CAT_ID":39157,"ELEMENT_SET_NO":999,"REV_AT_EPOCH":4736,"BSTAR":0,"MEAN_MOTION_DOT":-3.05e-6,"MEAN_MOTION_DDOT":0},{"OBJECT_NAME":"EUTELSAT 7B","OBJECT_ID":"2013-022A","EPOCH":"2026-04-25T20:08:38.475744","MEAN_MOTION":1.00271179,"ECCENTRICITY":0.0005907,"INCLINATION":0.075,"RA_OF_ASC_NODE":19.7025,"ARG_OF_PERICENTER":357.7592,"MEAN_ANOMALY":145.5336,"EPHEMERIS_TYPE":0,"CLASSIFICATION_TYPE":"U","NORAD_CAT_ID":39163,"ELEMENT_SET_NO":999,"REV_AT_EPOCH":4742,"BSTAR":0,"MEAN_MOTION_DOT":3.4e-7,"MEAN_MOTION_DDOT":0},{"OBJECT_NAME":"WGS F5 (USA 243)","OBJECT_ID":"2013-024A","EPOCH":"2026-04-25T11:38:56.158080","MEAN_MOTION":1.00272214,"ECCENTRICITY":2.78e-5,"INCLINATION":0.0157,"RA_OF_ASC_NODE":233.8848,"ARG_OF_PERICENTER":60.4157,"MEAN_ANOMALY":41.4352,"EPHEMERIS_TYPE":0,"CLASSIFICATION_TYPE":"U","NORAD_CAT_ID":39168,"ELEMENT_SET_NO":999,"REV_AT_EPOCH":4664,"BSTAR":0,"MEAN_MOTION_DOT":-2.98e-6,"MEAN_MOTION_DDOT":0},{"OBJECT_NAME":"SES-6","OBJECT_ID":"2013-026A","EPOCH":"2026-04-25T20:15:48.028032","MEAN_MOTION":1.00271216,"ECCENTRICITY":0.0002378,"INCLINATION":0.0243,"RA_OF_ASC_NODE":341.5646,"ARG_OF_PERICENTER":56.7305,"MEAN_ANOMALY":79.0035,"EPHEMERIS_TYPE":0,"CLASSIFICATION_TYPE":"U","NORAD_CAT_ID":39172,"ELEMENT_SET_NO":999,"REV_AT_EPOCH":4720,"BSTAR":0,"MEAN_MOTION_DOT":-2.75e-6,"MEAN_MOTION_DDOT":0},{"OBJECT_NAME":"IRNSS-1A","OBJECT_ID":"2013-034A","EPOCH":"2026-04-25T10:26:55.565376","MEAN_MOTION":1.00272082,"ECCENTRICITY":0.0017045,"INCLINATION":35.609,"RA_OF_ASC_NODE":64.6236,"ARG_OF_PERICENTER":187.4898,"MEAN_ANOMALY":173.0272,"EPHEMERIS_TYPE":0,"CLASSIFICATION_TYPE":"U","NORAD_CAT_ID":39199,"ELEMENT_SET_NO":999,"REV_AT_EPOCH":4684,"BSTAR":0,"MEAN_MOTION_DOT":7.5e-7,"MEAN_MOTION_DDOT":0},{"OBJECT_NAME":"MUOS-2","OBJECT_ID":"2013-036A","EPOCH":"2026-04-25T18:13:38.475840","MEAN_MOTION":1.0027078,"ECCENTRICITY":0.0050525,"INCLINATION":4.8919,"RA_OF_ASC_NODE":45.4347,"ARG_OF_PERICENTER":180.6758,"MEAN_ANOMALY":73.0089,"EPHEMERIS_TYPE":0,"CLASSIFICATION_TYPE":"U","NORAD_CAT_ID":39206,"ELEMENT_SET_NO":999,"REV_AT_EPOCH":4666,"BSTAR":0,"MEAN_MOTION_DOT":-2.4e-7,"MEAN_MOTION_DDOT":0}]
